ONEWEB-0208             
1 48243U 21031AK  25210.87724726 -.00000147  00000+0 -43195-3 0  9999
2 48243  87.9068 353.8355 0001700  91.0131 269.1194 13.14503851205961
ONEWEB-0200             
1 48244U 21031AL  25210.38406811  .00000241  00000+0  61541-3 0  9996
2 48244  87.9065 353.9249 0001725  94.0656 266.0671 13.14504520205829
ONEWEB-0217             
1 48245U 21031AM  25210.85664097  .00000144  00000+0  35489-3 0  9995
2 48245  87.9068 353.8157 0001694  87.0415 273.0908 13.14503533205846
ONEWEB-0211             
1 48767U 21045A   25210.54863023  .00000160  00000+0  38906-3 0  9990
2 48767  87.9084 323.4795 0002073  90.4193 269.7175 13.16083009202003
ONEWEB-0223             
1 48768U 21045B   25210.55807437 -.00000044  00000+0 -15124-3 0  9999
2 48768  87.9080 323.5269 0002206  87.8007 272.3376 13.15547986201986
ONEWEB-0230             
1 48769U 21045C   25210.60562320  .00000203  00000+0  50480-3 0  9994
2 48769  87.9068 323.5529 0001993 102.8646 257.2707 13.15548790202256
ONEWEB-0237             
1 48770U 21045D   25210.59452567  .00000120  00000+0  28506-3 0  9997
2 48770  87.9091 323.5409 0002166  92.5934 267.5444 13.15548432201972
ONEWEB-0235             
1 48771U 21045E   25210.56917557  .00000015  00000+0  62005-5 0  9997
2 48771  87.9084 323.5229 0002402  89.4953 270.6453 13.15549856201969
ONEWEB-0242             
1 48772U 21045F   25210.56282673  .00000039  00000+0  70840-4 0  9993
2 48772  87.9083 323.5091 0002161  98.0660 262.0715 13.15550759202005
ONEWEB-0241             
1 48773U 21045G   25210.55015665  .00000122  00000+0  28926-3 0  9998
2 48773  87.9068 323.5661 0001949  85.2326 274.9026 13.15549553201918
ONEWEB-0243             
1 48774U 21045H   25210.81001292 -.00000104  00000+0 -30997-3 0  9992
2 48774  87.9089 323.5079 0002321  92.7563 267.3833 13.15547537203101
ONEWEB-0222             
1 48775U 21045J   25210.56521695 -.00000010  00000+0 -60889-4 0  9999
2 48775  87.9079 323.5125 0001963  93.2803 266.8552 13.15549323201988
ONEWEB-0244             
1 48776U 21045K   25210.59134900  .00000065  00000+0  13737-3 0  9999
2 48776  87.9082 323.4874 0002130  99.7364 260.4007 13.15547785202552
ONEWEB-0247             
1 48777U 21045L   25210.58818153  .00000067  00000+0  14282-3 0  9996
2 48777  87.9081 323.5609 0002798  86.3045 273.8405 13.15547076201997
ONEWEB-0245             
1 48778U 21045M   25210.58342407 -.00000067  00000+0 -21078-3 0  9994
2 48778  87.9078 323.5253 0001865  92.4231 267.7113 13.15547234201969
ONEWEB-0229             
1 48779U 21045N   25210.57866966 -.00000009  00000+0 -57902-4 0  9997
2 48779  87.9083 323.5253 0002107  98.6810 261.4559 13.15547409203126
ONEWEB-0228             
1 48780U 21045P   25210.61208920  .00000281  00000+0  71317-3 0  9999
2 48780  87.9081 323.4927 0002022  96.2789 263.8572 13.15548798201916
ONEWEB-0232             
1 48781U 21045Q   25210.58661108  .00000027  00000+0  37876-4 0  9998
2 48781  87.9075 323.4923 0001957  98.5106 261.6246 13.15548406202236
ONEWEB-0231             
1 48782U 21045R   25210.86864289 -.00000145  00000+0 -42039-3 0  9994
2 48782  87.9072 323.4899 0002160  93.8408 266.2969 13.15549655203103
ONEWEB-0234             
1 48783U 21045S   25210.60228575  .00000175  00000+0  43055-3 0  9999
2 48783  87.9076 323.5096 0001053  93.8953 266.2298 13.15554226202062
ONEWEB-0238             
1 48784U 21045T   25210.60256529  .00000172  00000+0  42295-3 0  9992
2 48784  87.9069 323.5071 0001537  99.6629 260.4675 13.15548403201962
ONEWEB-0240             
1 48785U 21045U   25210.54778677  .00000150  00000+0  36570-3 0  9994
2 48785  87.9081 323.4994 0001924  87.0034 273.1317 13.15549762201986
ONEWEB-0246             
1 48786U 21045V   25210.54222983  .00000211  00000+0  52674-3 0  9990
2 48786  87.9085 323.5120 0002089  98.9045 261.2322 13.15550222201852
ONEWEB-0210             
1 48787U 21045W   25210.59293105  .00000149  00000+0  36163-3 0  9995
2 48787  87.9082 323.5013 0002603  94.1505 265.9922 13.15548086201900
ONEWEB-0214             
1 48788U 21045X   25210.82982131  .00000070  00000+0  15221-3 0  9991
2 48788  87.9081 323.4432 0002420  99.3495 260.7909 13.15544962203028
ONEWEB-0221             
1 48789U 21045Y   25210.30456401  .00000221  00000+0  55198-3 0  9996
2 48789  87.9077 323.5768 0002077  92.8691 267.2677 13.15550135201921
ONEWEB-0213             
1 48790U 21045Z   25210.36951395  .00000061  00000+0  12817-3 0  9999
2 48790  87.9081 323.5708 0002165  94.3746 265.7631 13.15547161201993
ONEWEB-0212             
1 48791U 21045AA  25210.57472142 -.00000055  00000+0 -17938-3 0  9995
2 48791  87.9077 323.5122 0001878  98.2607 261.8737 13.15548879203159
ONEWEB-0227             
1 48792U 21045AB  25210.57391403 -.00000065  00000+0 -20658-3 0  9990
2 48792  87.9079 323.5319 0001996  95.0588 265.0770 13.15547952203091
ONEWEB-0226             
1 48793U 21045AC  25210.87181082 -.00000081  00000+0 -25041-3 0  9993
2 48793  87.9085 323.4768 0002290  95.4092 264.7300 13.15549054203098
ONEWEB-0224             
1 48794U 21045AD  25210.60720273  .00000243  00000+0  61111-3 0  9992
2 48794  87.9081 323.5670 0001606  68.1638 291.9663 13.15547890201864
ONEWEB-0233             
1 48795U 21045AE  25210.61180213  .00000247  00000+0  62112-3 0  9994
2 48795  87.9087 323.5741 0002064  89.0268 271.1099 13.15550813201884
ONEWEB-0190             
1 48796U 21045AF  25210.37110233  .00000090  00000+0  20436-3 0  9992
2 48796  87.9086 323.5866 0002525  84.5418 275.6000 13.15547314201929
ONEWEB-0236             
1 48797U 21045AG  25210.84486753  .00000107  00000+0  25148-3 0  9992
2 48797  87.9094 323.5018 0001761  98.2254 261.9076 13.15547363202992
ONEWEB-0248             
1 48798U 21045AH  25210.85754839  .00000141  00000+0  34174-3 0  9994
2 48798  87.9086 323.4536 0001987  77.5685 282.5667 13.15550189203150
ONEWEB-0225             
1 48799U 21045AJ  25210.57548629 -.00000013  00000+0 -67713-4 0  9998
2 48799  87.9088 323.5416 0002376  86.3868 273.7534 13.15546433202000
ONEWEB-0215             
1 48800U 21045AK  25210.54539602  .00000166  00000+0  40618-3 0  9990
2 48800  87.9084 323.4984 0002260  80.6734 279.4651 13.15548395201875
ONEWEB-0216             
1 48801U 21045AL  25210.55489993  .00000052  00000+0  10284-3 0  9999
2 48801  87.9079 323.5418 0002122 100.5675 259.5694 13.15548333203001
ONEWEB-0239             
1 48802U 21045AM  25210.55965831 -.00000032  00000+0 -11788-3 0  9990
2 48802  87.9086 323.5531 0002085  74.8575 285.2785 13.15548980203067
ONEWEB-0249             
1 48967U 21060A   25210.52099510  .00000211  00000+0  51924-3 0  9991
2 48967  87.9049 293.0973 0001943  96.9750 263.1601 13.16596115197159
ONEWEB-0250             
1 48968U 21060B   25210.75556165  .00000047  00000+0  77653-4 0  9996
2 48968  87.9048 291.8627 0001442  69.7175 290.4116 13.25810449198787
ONEWEB-0252             
1 48970U 21060D   25210.47666666  .00000029  00000+0  42731-4 0  9995
2 48970  87.9051 293.0987 0002295 104.2218 255.9168 13.16595649197196
ONEWEB-0253             
1 48971U 21060E   25210.46558432  .00000099  00000+0  22517-3 0  9992
2 48971  87.9048 293.1051 0002150  93.6900 266.4477 13.16596247197123
ONEWEB-0254             
1 48972U 21060F   25210.47509471  .00000131  00000+0  30859-3 0  9998
2 48972  87.9054 293.0888 0002079  85.8914 274.2454 13.16595743197128
ONEWEB-0255             
1 48973U 21060G   25210.58908031  .00000069  00000+0  14570-3 0  9998
2 48973  87.9045 293.0964 0002073  90.9757 269.1612 13.16595512197213
ONEWEB-0256             
1 48974U 21060H   25210.76718669  .00000040  00000+0  70007-4 0  9992
2 48974  87.9044 293.0718 0002086 101.4967 258.6398 13.16596034198490
ONEWEB-0257             
1 48975U 21060J   25210.79965284 -.00000029  00000+0 -11005-3 0  9994
2 48975  87.9048 293.0316 0002191  94.6989 265.4392 13.16595485198458
ONEWEB-0258             
1 48976U 21060K   25210.49725052  .00000007  00000+0 -14441-4 0  9992
2 48976  87.9045 293.1167 0001922  97.3680 262.7669 13.16592945197139
ONEWEB-0259             
1 48977U 21060L   25210.79490273 -.00000049  00000+0 -16157-3 0  9992
2 48977  87.9048 293.0420 0002026  93.8329 266.3033 13.16595600198497
ONEWEB-0260             
1 48978U 21060M   25210.78618740 -.00000094  00000+0 -27906-3 0  9997
2 48978  87.9044 293.0696 0002461 105.1350 255.0053 13.16596122198467
ONEWEB-0261             
1 48979U 21060N   25210.52812395  .00000147  00000+0  35097-3 0  9999
2 48979  87.9044 293.1224 0002393  92.4601 267.6804 13.16594472197207
ONEWEB-0262             
1 48980U 21060P   25210.73633379 -.00000003  00000+0 -41574-4 0  9998
2 48980  87.9049 293.0427 0001903  88.7918 271.3431 13.16593236198490
ONEWEB-0263             
1 48981U 21060Q   25210.46401529  .00000092  00000+0  20613-3 0  9995
2 48981  87.9048 293.1210 0002262  87.3436 272.7954 13.16594692197121
ONEWEB-0264             
1 48982U 21060R   25210.50119852 -.00000203  00000+0 -56472-3 0  9994
2 48982  87.9044 293.1187 0002070  96.1653 263.9714 13.16593611197134
ONEWEB-0266             
1 48984U 21060T   25210.67457724  .00000098  00000+0  22399-3 0  9998
2 48984  87.9048 293.0591 0001806  97.3407 262.7929 13.16593148198449
ONEWEB-0267             
1 48985U 21060U   25210.45766859  .00000159  00000+0  38302-3 0  9996
2 48985  87.9049 293.1047 0002237  93.4218 266.7169 13.16594137197127
ONEWEB-0268             
1 48986U 21060V   25210.50200180  .00000034  00000+0  55301-4 0  9994
2 48986  87.9049 293.1017 0002142 100.0963 260.0410 13.16595984197398
ONEWEB-0269             
1 48987U 21060W   25210.25500558 -.00000034  00000+0 -12327-3 0  9991
2 48987  87.9045 293.1835 0002006 100.4680 259.6677 13.16595792197130
ONEWEB-0270             
1 48988U 21060X   25210.50041320  .00000051  00000+0  98975-4 0  9998
2 48988  87.9046 293.1046 0002205  86.6945 273.4438 13.16595864197203
